{
  "type": "FeatureCollection",
  "features": [
    {
      "type": "Feature",
      "properties": {
        "norad_id": 30442,
        "name": "FENGYUN 1C DEB",
        "group": "fengyun-1c-debris",
        "lat": -23.111004906102746,
        "lon": 73.7010547263695,
        "alt_km": 765.7163328163806,
        "timestamp": "2025-12-02T10:50:47.550534+00:00",
        "meta_object_name": "FENGYUN 1C DEB",
        "meta_object_id": "1999-025AFD",
        "meta_epoch": "2025-12-01T04:41:41.613792",
        "meta_mean_motion": 14.28421578,
        "meta_eccentricity": 0.0053846,
        "meta_inclination": 98.8663,
        "meta_ra_of_asc_node": 68.6056,
        "meta_arg_of_pericenter": 321.7021,
        "meta_mean_anomaly": 38.0341,
        "meta_ephemeris_type": 0,
        "meta_classification_type": "U",
        "meta_norad_cat_id": 30442,
        "meta_element_set_no": 999,
        "meta_rev_at_epoch": 96997,
        "meta_bstar": 0.0024337,
        "meta_mean_motion_dot": 6.141e-05,
        "meta_mean_motion_ddot": 0,
        "tle_line1": "1 30442U 99025AFD 25335.19562053  .00006141  00000+0  24337-2 0  9999",
        "tle_line2": "2 30442  98.8663  68.6056 0053846 321.7021  38.0341 14.28421578969979"
      },
      "geometry": {
        "type": "Point",
        "coordinates": [
          73.7010547263695,
          -23.111004906102746
        ]
      }
    },
    {
      "type": "Feature",
      "properties": {
        "norad_id": 30443,
        "name": "FENGYUN 1C DEB",
        "group": "fengyun-1c-debris",
        "lat": -20.086789039832333,
        "lon": 100.021189142755,
        "alt_km": 795.0533972362027,
        "timestamp": "2025-12-02T10:50:47.550544+00:00",
        "meta_object_name": "FENGYUN 1C DEB",
        "meta_object_id": "1999-025AFE",
        "meta_epoch": "2025-12-01T18:52:21.065088",
        "meta_mean_motion": 14.36531644,
        "meta_eccentricity": 0.0028677,
        "meta_inclination": 98.8472,
        "meta_ra_of_asc_node": 282.6029,
        "meta_arg_of_pericenter": 9.1118,
        "meta_mean_anomaly": 351.0582,
        "meta_ephemeris_type": 0,
        "meta_classification_type": "U",
        "meta_norad_cat_id": 30443,
        "meta_element_set_no": 999,
        "meta_rev_at_epoch": 97276,
        "meta_bstar": 0.0026141,
        "meta_mean_motion_dot": 7.674e-05,
        "meta_mean_motion_ddot": 0,
        "tle_line1": "1 30443U 99025AFE 25335.78635492  .00007674  00000+0  26141-2 0  9990",
        "tle_line2": "2 30443  98.8472 282.6029 0028677   9.1118 351.0582 14.36531644972765"
      },
      "geometry": {
        "type": "Point",
        "coordinates": [
          100.021189142755,
          -20.086789039832333
        ]
      }
    },
    {
      "type": "Feature",
      "properties": {
        "norad_id": 30445,
        "name": "FENGYUN 1C DEB",
        "group": "fengyun-1c-debris",
        "lat": 77.63696196442729,
        "lon": 152.5223368017549,
        "alt_km": 673.3114617619713,
        "timestamp": "2025-12-02T10:50:47.550555+00:00",
        "meta_object_name": "FENGYUN 1C DEB",
        "meta_object_id": "1999-025AFG",
        "meta_epoch": "2025-12-01T19:28:56.019072",
        "meta_mean_motion": 14.48636546,
        "meta_eccentricity": 0.010656,
        "meta_inclination": 98.8331,
        "meta_ra_of_asc_node": 286.6633,
        "meta_arg_of_pericenter": 50.8921,
        "meta_mean_anomaly": 310.1688,
        "meta_ephemeris_type": 0,
        "meta_classification_type": "U",
        "meta_norad_cat_id": 30445,
        "meta_element_set_no": 999,
        "meta_rev_at_epoch": 99026,
        "meta_bstar": 0.00075583,
        "meta_mean_motion_dot": 3.005e-05,
        "meta_mean_motion_ddot": 0,
        "tle_line1": "1 30445U 99025AFG 25335.81175948  .00003005  00000+0  75583-3 0  9990",
        "tle_line2": "2 30445  98.8331 286.6633 0106560  50.8921 310.1688 14.48636546990267"
      },
      "geometry": {
        "type": "Point",
        "coordinates": [
          152.5223368017549,
          77.63696196442729
        ]
      }
    },
    {
      "type": "Feature",
      "properties": {
        "norad_id": 30446,
        "name": "FENGYUN 1C DEB",
        "group": "fengyun-1c-debris",
        "lat": 27.106202331038205,
        "lon": 54.36640331923087,
        "alt_km": 747.3524376794358,
        "timestamp": "2025-12-02T10:50:47.550566+00:00",
        "meta_object_name": "FENGYUN 1C DEB",
        "meta_object_id": "1999-025AFH",
        "meta_epoch": "2025-12-02T04:04:11.336160",
        "meta_mean_motion": 14.44507721,
        "meta_eccentricity": 0.0035626,
        "meta_inclination": 98.6153,
        "meta_ra_of_asc_node": 58.5311,
        "meta_arg_of_pericenter": 129.5418,
        "meta_mean_anomaly": 230.893,
        "meta_ephemeris_type": 0,
        "meta_classification_type": "U",
        "meta_norad_cat_id": 30446,
        "meta_element_set_no": 999,
        "meta_rev_at_epoch": 98024,
        "meta_bstar": 0.0021534,
        "meta_mean_motion_dot": 7.457e-05,
        "meta_mean_motion_ddot": 0,
        "tle_line1": "1 30446U 99025AFH 25336.16957565  .00007457  00000+0  21534-2 0  9994",
        "tle_line2": "2 30446  98.6153  58.5311 0035626 129.5418 230.8930 14.44507721980249"
      },
      "geometry": {
        "type": "Point",
        "coordinates": [
          54.36640331923087,
          27.106202331038205
        ]
      }
    },
    {
      "type": "Feature",
      "properties": {
        "norad_id": 30447,
        "name": "FENGYUN 1C DEB",
        "group": "fengyun-1c-debris",
        "lat": 68.81063081978695,
        "lon": 173.17788889187116,
        "alt_km": 657.1480969895947,
        "timestamp": "2025-12-02T10:50:47.550576+00:00",
        "meta_object_name": "FENGYUN 1C DEB",
        "meta_object_id": "1999-025AFJ",
        "meta_epoch": "2025-12-01T03:44:57.890112",
        "meta_mean_motion": 14.56185979,
        "meta_eccentricity": 0.00595087,
        "meta_inclination": 98.9717,
        "meta_ra_of_asc_node": 195.8349,
        "meta_arg_of_pericenter": 64.9639,
        "meta_mean_anomaly": 57.0615,
        "meta_ephemeris_type": 0,
        "meta_classification_type": "U",
        "meta_norad_cat_id": 30447,
        "meta_element_set_no": 999,
        "meta_rev_at_epoch": 97927,
        "meta_bstar": 0.0025374093,
        "meta_mean_motion_dot": 0.00011444,
        "meta_mean_motion_ddot": 0,
        "tle_line1": "1 30447U 99025AFJ 25335.15622558  .00011444  00000+0  25374-2 0  9991",
        "tle_line2": "2 30447  98.9717 195.8349 0059508  64.9639  57.0615 14.56185979979277"
      },
      "geometry": {
        "type": "Point",
        "coordinates": [
          173.17788889187116,
          68.81063081978695
        ]
      }
    },
    {
      "type": "Feature",
      "properties": {
        "norad_id": 30448,
        "name": "FENGYUN 1C DEB",
        "group": "fengyun-1c-debris",
        "lat": -41.45051962685732,
        "lon": -120.0786889447736,
        "alt_km": 794.1869124917048,
        "timestamp": "2025-12-02T10:50:47.550586+00:00",
        "meta_object_name": "FENGYUN 1C DEB",
        "meta_object_id": "1999-025AFK",
        "meta_epoch": "2025-12-02T05:04:46.405344",
        "meta_mean_motion": 14.34945854,
        "meta_eccentricity": 0.001737,
        "meta_inclination": 98.8323,
        "meta_ra_of_asc_node": 67.5686,
        "meta_arg_of_pericenter": 45.5194,
        "meta_mean_anomaly": 15.847,
        "meta_ephemeris_type": 0,
        "meta_classification_type": "U",
        "meta_norad_cat_id": 30448,
        "meta_element_set_no": 999,
        "meta_rev_at_epoch": 97187,
        "meta_bstar": 0.0022494,
        "meta_mean_motion_dot": 6.369e-05,
        "meta_mean_motion_ddot": 0,
        "tle_line1": "1 30448U 99025AFK 25336.21164821  .00006369  00000+0  22494-2 0  9994",
        "tle_line2": "2 30448  98.8323  67.5686 0017370  45.5194  15.8470 14.34945854971872"
      },
      "geometry": {
        "type": "Point",
        "coordinates": [
          -120.0786889447736,
          -41.45051962685732
        ]
      }
    },
    {
      "type": "Feature",
      "properties": {
        "norad_id": 30450,
        "name": "FENGYUN 1C DEB",
        "group": "fengyun-1c-debris",
        "lat": 77.2501716833365,
        "lon": -48.182003478048536,
        "alt_km": 806.1865811457274,
        "timestamp": "2025-12-02T10:50:47.550596+00:00",
        "meta_object_name": "FENGYUN 1C DEB",
        "meta_object_id": "1999-025AFM",
        "meta_epoch": "2025-12-02T00:52:07.890816",
        "meta_mean_motion": 14.61648153,
        "meta_eccentricity": 0.0188856,
        "meta_inclination": 98.0809,
        "meta_ra_of_asc_node": 350.3061,
        "meta_arg_of_pericenter": 242.0364,
        "meta_mean_anomaly": 172.5421,
        "meta_ephemeris_type": 0,
        "meta_classification_type": "U",
        "meta_norad_cat_id": 30450,
        "meta_element_set_no": 999,
        "meta_rev_at_epoch": 99386,
        "meta_bstar": 0.0007595,
        "meta_mean_motion_dot": 4.819e-05,
        "meta_mean_motion_ddot": 0,
        "tle_line1": "1 30450U 99025AFM 25336.03620244  .00004819  00000+0  75950-3 0  9997",
        "tle_line2": "2 30450  98.0809 350.3061 0188856 242.0364 172.5421 14.61648153993869"
      },
      "geometry": {
        "type": "Point",
        "coordinates": [
          -48.182003478048536,
          77.2501716833365
        ]
      }
    }
  ]
}